COSMOS 1933             
1 18958U 88020A   26060.48409901  .00005231  00000+0  25664-3 0  9994
2 18958  82.5094 259.0326 0003211 212.9314 147.1721 15.17895934 48981
SL-3 R/B                
1 19046U 88032B   26060.50281407  .00006866  00000+0  32155-3 0  9996
2 19046  97.5173  43.7837 0024085 262.2453  97.6046 15.19790652 50865
SL-16 R/B               
1 19120U 88039B   26060.45432515  .00000174  00000+0  10475-3 0  9995
2 19120  71.0128  85.9631 0022275 346.5618  13.4911 14.19614937957215
COSMOS 1953             
1 19210U 88050A   26060.31112731  .00010302  00000+0  37129-3 0  9997
2 19210  82.5112 166.6702 0012145 149.6086 210.5860 15.28341477 36507
SL-8 R/B                
1 19257U 88053B   26060.52998324  .00000277  00000+0  98306-4 0  9999
2 19257  74.0471 127.5070 0021201 308.0325 154.0169 14.38909976975427
COSMOS 1975             
1 19573U 88093A   26060.27694153  .00008664  00000+0  31629-3 0  9991
2 19573  82.5205 126.1290 0011342 192.5705 167.5253 15.27915779 18124
SL-14 R/B               
1 19574U 88093B   26060.45524876  .00000684  00000+0  75787-4 0  9994
2 19574  82.5289  49.7747 0022208  67.1816  47.2516 14.85644508999819
SL-16 R/B               
1 19650U 88102B   26060.49935984 -.00000165  00000+0 -59396-4 0  9994
2 19650  71.0000 168.7288 0013448  14.0381 346.1113 14.16149526925732
INTERCOSMOS 24          
1 20261U 89080A   26060.22425134  .00000736  00000+0  21821-3 0  9995
2 20261  82.6036 109.9167 1186900 312.4888  38.1632 12.59542780665733
SL-14 R/B               
1 20262U 89080C   26060.39379381  .00000708  00000+0  21082-3 0  9994
2 20262  82.5970 178.5103 1230245 203.7077 150.2380 12.50481053659113
DELTA 1 R/B             
1 20323U 89089B   26060.48162889  .00000442  00000+0  11772-3 0  9994
2 20323  97.0711 269.2256 0069940 147.5339 213.0190 14.50655322894548
ARIANE 40 R/B           
1 20443U 90005H   26060.12712335  .00000284  00000+0  10385-3 0  9998
2 20443  98.3102 121.0430 0009336 225.3610 134.6818 14.39863703891574
