CCSDS_OMM_VERS = 2.0
CREATION_DATE  = 
ORIGINATOR     = 

OBJECT_NAME    = COSMOS 1933
OBJECT_ID      = 1988-020A
CENTER_NAME    = EARTH
REF_FRAME      = TEME
TIME_SYSTEM    = UTC
MEAN_ELEMENT_THEORY = SGP/SGP4

EPOCH          = 2026-03-01T11:37:06.154464
MEAN_MOTION    = 15.17895934
ECCENTRICITY   = .0003211
INCLINATION    = 82.5094
RA_OF_ASC_NODE = 259.0326
ARG_OF_PERICENTER = 212.9314
MEAN_ANOMALY   = 147.1721

EPHEMERIS_TYPE = 0
CLASSIFICATION_TYPE = U
NORAD_CAT_ID   = 18958
ELEMENT_SET_NO = 999
REV_AT_EPOCH   = 4898
BSTAR          = .25664E-3
MEAN_MOTION_DOT = .5231E-4
MEAN_MOTION_DDOT = 0

CCSDS_OMM_VERS = 2.0
CREATION_DATE  = 
ORIGINATOR     = 

OBJECT_NAME    = SL-3 R/B
OBJECT_ID      = 1988-032B
CENTER_NAME    = EARTH
REF_FRAME      = TEME
TIME_SYSTEM    = UTC
MEAN_ELEMENT_THEORY = SGP/SGP4

EPOCH          = 2026-03-01T12:04:03.135648
MEAN_MOTION    = 15.19790652
ECCENTRICITY   = .0024085
INCLINATION    = 97.5173
RA_OF_ASC_NODE = 43.7837
ARG_OF_PERICENTER = 262.2453
MEAN_ANOMALY   = 97.6046

EPHEMERIS_TYPE = 0
CLASSIFICATION_TYPE = U
NORAD_CAT_ID   = 19046
ELEMENT_SET_NO = 999
REV_AT_EPOCH   = 5086
BSTAR          = .32155E-3
MEAN_MOTION_DOT = .6866E-4
MEAN_MOTION_DDOT = 0

CCSDS_OMM_VERS = 2.0
CREATION_DATE  = 
ORIGINATOR     = 

OBJECT_NAME    = SL-16 R/B
OBJECT_ID      = 1988-039B
CENTER_NAME    = EARTH
REF_FRAME      = TEME
TIME_SYSTEM    = UTC
MEAN_ELEMENT_THEORY = SGP/SGP4

EPOCH          = 2026-03-01T10:54:13.692960
MEAN_MOTION    = 14.19614937
ECCENTRICITY   = .0022275
INCLINATION    = 71.0128
RA_OF_ASC_NODE = 85.9631
ARG_OF_PERICENTER = 346.5618
MEAN_ANOMALY   = 13.4911

EPHEMERIS_TYPE = 0
CLASSIFICATION_TYPE = U
NORAD_CAT_ID   = 19120
ELEMENT_SET_NO = 999
REV_AT_EPOCH   = 95721
BSTAR          = .10475E-3
MEAN_MOTION_DOT = .174E-5
MEAN_MOTION_DDOT = 0

CCSDS_OMM_VERS = 2.0
CREATION_DATE  = 
ORIGINATOR     = 

OBJECT_NAME    = COSMOS 1953
OBJECT_ID      = 1988-050A
CENTER_NAME    = EARTH
REF_FRAME      = TEME
TIME_SYSTEM    = UTC
MEAN_ELEMENT_THEORY = SGP/SGP4

EPOCH          = 2026-03-01T07:28:01.399584
MEAN_MOTION    = 15.28341477
ECCENTRICITY   = .0012145
INCLINATION    = 82.5112
RA_OF_ASC_NODE = 166.6702
ARG_OF_PERICENTER = 149.6086
MEAN_ANOMALY   = 210.5860

EPHEMERIS_TYPE = 0
CLASSIFICATION_TYPE = U
NORAD_CAT_ID   = 19210
ELEMENT_SET_NO = 999
REV_AT_EPOCH   = 3650
BSTAR          = .37129E-3
MEAN_MOTION_DOT = .10302E-3
MEAN_MOTION_DDOT = 0

CCSDS_OMM_VERS = 2.0
CREATION_DATE  = 
ORIGINATOR     = 

OBJECT_NAME    = SL-8 R/B
OBJECT_ID      = 1988-053B
CENTER_NAME    = EARTH
REF_FRAME      = TEME
TIME_SYSTEM    = UTC
MEAN_ELEMENT_THEORY = SGP/SGP4

EPOCH          = 2026-03-01T12:43:10.551936
MEAN_MOTION    = 14.38909976
ECCENTRICITY   = .0021201
INCLINATION    = 74.0471
RA_OF_ASC_NODE = 127.5070
ARG_OF_PERICENTER = 308.0325
MEAN_ANOMALY   = 154.0169

EPHEMERIS_TYPE = 0
CLASSIFICATION_TYPE = U
NORAD_CAT_ID   = 19257
ELEMENT_SET_NO = 999
REV_AT_EPOCH   = 97542
BSTAR          = .98306E-4
MEAN_MOTION_DOT = .277E-5
MEAN_MOTION_DDOT = 0

CCSDS_OMM_VERS = 2.0
CREATION_DATE  = 
ORIGINATOR     = 

OBJECT_NAME    = COSMOS 1975
OBJECT_ID      = 1988-093A
CENTER_NAME    = EARTH
REF_FRAME      = TEME
TIME_SYSTEM    = UTC
MEAN_ELEMENT_THEORY = SGP/SGP4

EPOCH          = 2026-03-01T06:38:47.748192
MEAN_MOTION    = 15.27915779
ECCENTRICITY   = .0011342
INCLINATION    = 82.5205
RA_OF_ASC_NODE = 126.1290
ARG_OF_PERICENTER = 192.5705
MEAN_ANOMALY   = 167.5253

EPHEMERIS_TYPE = 0
CLASSIFICATION_TYPE = U
NORAD_CAT_ID   = 19573
ELEMENT_SET_NO = 999
REV_AT_EPOCH   = 1812
BSTAR          = .31629E-3
MEAN_MOTION_DOT = .8664E-4
MEAN_MOTION_DDOT = 0

CCSDS_OMM_VERS = 2.0
CREATION_DATE  = 
ORIGINATOR     = 

OBJECT_NAME    = SL-14 R/B
OBJECT_ID      = 1988-093B
CENTER_NAME    = EARTH
REF_FRAME      = TEME
TIME_SYSTEM    = UTC
MEAN_ELEMENT_THEORY = SGP/SGP4

EPOCH          = 2026-03-01T10:55:33.492864
MEAN_MOTION    = 14.85644508
ECCENTRICITY   = .0022208
INCLINATION    = 82.5289
RA_OF_ASC_NODE = 49.7747
ARG_OF_PERICENTER = 67.1816
MEAN_ANOMALY   = 47.2516

EPHEMERIS_TYPE = 0
CLASSIFICATION_TYPE = U
NORAD_CAT_ID   = 19574
ELEMENT_SET_NO = 999
REV_AT_EPOCH   = 99981
BSTAR          = .75787E-4
MEAN_MOTION_DOT = .684E-5
MEAN_MOTION_DDOT = 0

CCSDS_OMM_VERS = 2.0
CREATION_DATE  = 
ORIGINATOR     = 

OBJECT_NAME    = SL-16 R/B
OBJECT_ID      = 1988-102B
CENTER_NAME    = EARTH
REF_FRAME      = TEME
TIME_SYSTEM    = UTC
MEAN_ELEMENT_THEORY = SGP/SGP4

EPOCH          = 2026-03-01T11:59:04.690176
MEAN_MOTION    = 14.16149526
ECCENTRICITY   = .0013448
INCLINATION    = 71.0000
RA_OF_ASC_NODE = 168.7288
ARG_OF_PERICENTER = 14.0381
MEAN_ANOMALY   = 346.1113

EPHEMERIS_TYPE = 0
CLASSIFICATION_TYPE = U
NORAD_CAT_ID   = 19650
ELEMENT_SET_NO = 999
REV_AT_EPOCH   = 92573
BSTAR          = -.59396E-4
MEAN_MOTION_DOT = -.165E-5
MEAN_MOTION_DDOT = 0

CCSDS_OMM_VERS = 2.0
CREATION_DATE  = 
ORIGINATOR     = 

OBJECT_NAME    = INTERCOSMOS 24
OBJECT_ID      = 1989-080A
CENTER_NAME    = EARTH
REF_FRAME      = TEME
TIME_SYSTEM    = UTC
MEAN_ELEMENT_THEORY = SGP/SGP4

EPOCH          = 2026-03-01T05:22:55.315776
MEAN_MOTION    = 12.59542780
ECCENTRICITY   = .11869
INCLINATION    = 82.6036
RA_OF_ASC_NODE = 109.9167
ARG_OF_PERICENTER = 312.4888
MEAN_ANOMALY   = 38.1632

EPHEMERIS_TYPE = 0
CLASSIFICATION_TYPE = U
NORAD_CAT_ID   = 20261
ELEMENT_SET_NO = 999
REV_AT_EPOCH   = 66573
BSTAR          = .21821E-3
MEAN_MOTION_DOT = .736E-5
MEAN_MOTION_DDOT = 0

CCSDS_OMM_VERS = 2.0
CREATION_DATE  = 
ORIGINATOR     = 

OBJECT_NAME    = SL-14 R/B
OBJECT_ID      = 1989-080C
CENTER_NAME    = EARTH
REF_FRAME      = TEME
TIME_SYSTEM    = UTC
MEAN_ELEMENT_THEORY = SGP/SGP4

EPOCH          = 2026-03-01T09:27:03.785184
MEAN_MOTION    = 12.50481053
ECCENTRICITY   = .1230245
INCLINATION    = 82.5970
RA_OF_ASC_NODE = 178.5103
ARG_OF_PERICENTER = 203.7077
MEAN_ANOMALY   = 150.2380

EPHEMERIS_TYPE = 0
CLASSIFICATION_TYPE = U
NORAD_CAT_ID   = 20262
ELEMENT_SET_NO = 999
REV_AT_EPOCH   = 65911
BSTAR          = .21082E-3
MEAN_MOTION_DOT = .708E-5
MEAN_MOTION_DDOT = 0

CCSDS_OMM_VERS = 2.0
CREATION_DATE  = 
ORIGINATOR     = 

OBJECT_NAME    = DELTA 1 R/B
OBJECT_ID      = 1989-089B
CENTER_NAME    = EARTH
REF_FRAME      = TEME
TIME_SYSTEM    = UTC
MEAN_ELEMENT_THEORY = SGP/SGP4

EPOCH          = 2026-03-01T11:33:32.736096
MEAN_MOTION    = 14.50655322
ECCENTRICITY   = .006994
INCLINATION    = 97.0711
RA_OF_ASC_NODE = 269.2256
ARG_OF_PERICENTER = 147.5339
MEAN_ANOMALY   = 213.0190

EPHEMERIS_TYPE = 0
CLASSIFICATION_TYPE = U
NORAD_CAT_ID   = 20323
ELEMENT_SET_NO = 999
REV_AT_EPOCH   = 89454
BSTAR          = .11772E-3
MEAN_MOTION_DOT = .442E-5
MEAN_MOTION_DDOT = 0

CCSDS_OMM_VERS = 2.0
CREATION_DATE  = 
ORIGINATOR     = 

OBJECT_NAME    = ARIANE 40 R/B
OBJECT_ID      = 1990-005H
CENTER_NAME    = EARTH
REF_FRAME      = TEME
TIME_SYSTEM    = UTC
MEAN_ELEMENT_THEORY = SGP/SGP4

EPOCH          = 2026-03-01T03:03:03.457440
MEAN_MOTION    = 14.39863703
ECCENTRICITY   = .00093369
INCLINATION    = 98.3102
RA_OF_ASC_NODE = 121.0430
ARG_OF_PERICENTER = 225.3610
MEAN_ANOMALY   = 134.6818

EPHEMERIS_TYPE = 0
CLASSIFICATION_TYPE = U
NORAD_CAT_ID   = 20443
ELEMENT_SET_NO = 999
REV_AT_EPOCH   = 89157
BSTAR          = .10384882E-3
MEAN_MOTION_DOT = .284E-5
MEAN_MOTION_DDOT = 0

